{"type": "FeatureCollection", "features": [ {"type": "Feature", "properties": {"norad_id": 33153, "name": "INTELSAT 25 (IS-25)", "group": "intelsat", "lat": 2.255239521392521, "lon": 177.8201449640947, "alt_km": 35787.12294523046, "timestamp": "2025-12-25T07:41:09.390484+00:00", "meta": {"OBJECT_NAME": "INTELSAT 25 (IS-25)", "OBJECT_ID": "2008-034A", "EPOCH": "2025-12-24T19:47:55.078656", "MEAN_MOTION": 1.00272075, "ECCENTRICITY": 0.00048975, "INCLINATION": 2.2569, "RA_OF_ASC_NODE": 82.5197, "ARG_OF_PERICENTER": 189.0782, "MEAN_ANOMALY": 87.4801, "EPHEMERIS_TYPE": 0, "CLASSIFICATION_TYPE": "U", "NORAD_CAT_ID": 33153, "ELEMENT_SET_NO": 999, "REV_AT_EPOCH": 6394, "BSTAR": 0, "MEAN_MOTION_DOT": -2.03e-06, "MEAN_MOTION_DDOT": 0}, "tle": {"line1": "1 33153U 08034A   25358.82494304 -.00000203  00000+0  00000+0 0  9991", "line2": "2 33153   2.2569  82.5197 0004897 189.0782  87.4801  1.00272075 63940"}}, "geometry": {"type": "Point", "coordinates": [177.8201449640947, 2.255239521392521]}}, {"type": "Feature", "properties": {"norad_id": 33376, "name": "GALAXY 19 (G-19)", "group": "intelsat", "lat": 0.004383685558579674, "lon": 112.35328717139821, "alt_km": 35797.070374704104, "timestamp": "2025-12-25T07:41:09.390497+00:00", "meta": {"OBJECT_NAME": "GALAXY 19 (G-19)", "OBJECT_ID": "2008-045A", "EPOCH": "2025-12-24T14:21:03.877920", "MEAN_MOTION": 1.00271747, "ECCENTRICITY": 0.00026603, "INCLINATION": 0.0428, "RA_OF_ASC_NODE": 265.007, "ARG_OF_PERICENTER": 13.9118, "MEAN_ANOMALY": 292.7134, "EPHEMERIS_TYPE": 0, "CLASSIFICATION_TYPE": "U", "NORAD_CAT_ID": 33376, "ELEMENT_SET_NO": 999, "REV_AT_EPOCH": 6315, "BSTAR": 0, "MEAN_MOTION_DOT": -1.18e-06, "MEAN_MOTION_DDOT": 0}, "tle": {"line1": "1 33376U 08045A   25358.59796155 -.00000118  00000+0  00000+0 0  9998", "line2": "2 33376   0.0428 265.0070 0002660  13.9118 292.7134  1.00271747 63157"}}, "geometry": {"type": "Point", "coordinates": [112.35328717139821, 0.004383685558579674]}}, {"type": "Feature", "properties": {"norad_id": 35493, "name": "FM-5", "group": "intelsat", "lat": 0.010852056359551205, "lon": 123.20944842796197, "alt_km": 35783.64341797413, "timestamp": "2025-12-25T07:41:09.390508+00:00", "meta": {"OBJECT_NAME": "FM-5", "OBJECT_ID": "2009-034A", "EPOCH": "2025-12-24T19:32:19.073760", "MEAN_MOTION": 1.00269812, "ECCENTRICITY": 8.917e-05, "INCLINATION": 0.0186, "RA_OF_ASC_NODE": 295.7777, "ARG_OF_PERICENTER": 223.7775, "MEAN_ANOMALY": 140.962, "EPHEMERIS_TYPE": 0, "CLASSIFICATION_TYPE": "U", "NORAD_CAT_ID": 35493, "ELEMENT_SET_NO": 999, "REV_AT_EPOCH": 4489, "BSTAR": 0, "MEAN_MOTION_DOT": -1.79e-06, "MEAN_MOTION_DDOT": 0}, "tle": {"line1": "1 35493U 09034A   25358.81410965 -.00000179  00000+0  00000+0 0  9993", "line2": "2 35493   0.0186 295.7777 0000891 223.7775 140.9620  1.00269812 44892"}}, "geometry": {"type": "Point", "coordinates": [123.20944842796197, 0.010852056359551205]}}, {"type": "Feature", "properties": {"norad_id": 36097, "name": "INTELSAT 14 (IS-14)", "group": "intelsat", "lat": 0.01585295850610764, "lon": 164.3174005035692, "alt_km": 35792.77479321868, "timestamp": "2025-12-25T07:41:09.390520+00:00", "meta": {"OBJECT_NAME": "INTELSAT 14 (IS-14)", "OBJECT_ID": "2009-064A", "EPOCH": "2025-12-24T11:10:22.140192", "MEAN_MOTION": 1.00269035, "ECCENTRICITY": 0.0002637, "INCLINATION": 0.013, "RA_OF_ASC_NODE": 11.8022, "ARG_OF_PERICENTER": 274.0942, "MEAN_ANOMALY": 289.9229, "EPHEMERIS_TYPE": 0, "CLASSIFICATION_TYPE": "U", "NORAD_CAT_ID": 36097, "ELEMENT_SET_NO": 999, "REV_AT_EPOCH": 5885, "BSTAR": 0, "MEAN_MOTION_DOT": -2.53e-06, "MEAN_MOTION_DDOT": 0}, "tle": {"line1": "1 36097U 09064A   25358.46553403 -.00000253  00000+0  00000+0 0  9996", "line2": "2 36097   0.0130  11.8022 0002637 274.0942 289.9229  1.00269035 58854"}}, "geometry": {"type": "Point", "coordinates": [164.3174005035692, 0.01585295850610764]}}, {"type": "Feature", "properties": {"norad_id": 36106, "name": "INTELSAT 15 (IS-15)", "group": "intelsat", "lat": -0.0284044961064099, "lon": -65.47521751141245, "alt_km": 35776.67252802937, "timestamp": "2025-12-25T07:41:09.390532+00:00", "meta": {"OBJECT_NAME": "INTELSAT 15 (IS-15)", "OBJECT_ID": "2009-067A", "EPOCH": "2025-12-24T19:44:15.860256", "MEAN_MOTION": 1.00270653, "ECCENTRICITY": 0.00023338, "INCLINATION": 0.0103, "RA_OF_ASC_NODE": 45.3233, "ARG_OF_PERICENTER": 240.4709, "MEAN_ANOMALY": 189.0214, "EPHEMERIS_TYPE": 0, "CLASSIFICATION_TYPE": "U", "NORAD_CAT_ID": 36106, "ELEMENT_SET_NO": 999, "REV_AT_EPOCH": 3948, "BSTAR": 0, "MEAN_MOTION_DOT": -1.64e-06, "MEAN_MOTION_DDOT": 0}, "tle": {"line1": "1 36106U 09067A   25358.82240579 -.00000164  00000+0  00000+0 0  9998", "line2": "2 36106   0.0103  45.3233 0002333 240.4709 189.0214  1.00270653 39482"}}, "geometry": {"type": "Point", "coordinates": [-65.47521751141245, -0.0284044961064099]}}, {"type": "Feature", "properties": {"norad_id": 36131, "name": "DIRECTV 12", "group": "intelsat", "lat": 0.011746426588713653, "lon": 106.66487959095875, "alt_km": 35787.46014666329, "timestamp": "2025-12-25T07:41:09.390544+00:00", "meta": {"OBJECT_NAME": "DIRECTV 12", "OBJECT_ID": "2009-075A", "EPOCH": "2025-12-24T14:19:26.533632", "MEAN_MOTION": 1.00274235, "ECCENTRICITY": 5.749e-05, "INCLINATION": 0.0184, "RA_OF_ASC_NODE": 118.0209, "ARG_OF_PERICENTER": 200.6669, "MEAN_ANOMALY": 246.8321, "EPHEMERIS_TYPE": 0, "CLASSIFICATION_TYPE": "U", "NORAD_CAT_ID": 36131, "ELEMENT_SET_NO": 999, "REV_AT_EPOCH": 4480, "BSTAR": 0, "MEAN_MOTION_DOT": -8.3e-07, "MEAN_MOTION_DDOT": 0}, "tle": {"line1": "1 36131U 09075A   25358.59683488 -.00000083  00000+0  00000+0 0  9999", "line2": "2 36131   0.0184 118.0209 0000574 200.6669 246.8321  1.00274235 44801"}}, "geometry": {"type": "Point", "coordinates": [106.66487959095875, 0.011746426588713653]}}, {"type": "Feature", "properties": {"norad_id": 36397, "name": "INTELSAT 16 (IS-16)", "group": "intelsat", "lat": 0.015218616062640255, "lon": 133.1578467302937, "alt_km": 35791.96258704828, "timestamp": "2025-12-25T07:41:09.390556+00:00", "meta": {"OBJECT_NAME": "INTELSAT 16 (IS-16)", "OBJECT_ID": "2010-006A", "EPOCH": "2025-12-24T10:06:12.528576", "MEAN_MOTION": 1.00270629, "ECCENTRICITY": 0.00018004, "INCLINATION": 0.01, "RA_OF_ASC_NODE": 332.683, "ARG_OF_PERICENTER": 296.3465, "MEAN_ANOMALY": 259.5301, "EPHEMERIS_TYPE": 0, "CLASSIFICATION_TYPE": "U", "NORAD_CAT_ID": 36397, "ELEMENT_SET_NO": 999, "REV_AT_EPOCH": 5790, "BSTAR": 0, "MEAN_MOTION_DOT": -2.24e-06, "MEAN_MOTION_DDOT": 0}, "tle": {"line1": "1 36397U 10006A   25358.42097834 -.00000224  00000+0  00000+0 0  9992", "line2": "2 36397   0.0100 332.6830 0001800 296.3465 259.5301  1.00270629 57903"}}, "geometry": {"type": "Point", "coordinates": [133.1578467302937, 0.015218616062640255]}}, {"type": "Feature", "properties": {"norad_id": 37185, "name": "XM-5", "group": "intelsat", "lat": 0.014969572153874266, "lon": 94.16681419357549, "alt_km": 35781.06256086958, "timestamp": "2025-12-25T07:41:09.390568+00:00", "meta": {"OBJECT_NAME": "XM-5", "OBJECT_ID": "2010-053A", "EPOCH": "2025-12-24T10:34:19.786656", "MEAN_MOTION": 1.00277155, "ECCENTRICITY": 0.00021079, "INCLINATION": 0.067, "RA_OF_ASC_NODE": 268.4495, "ARG_OF_PERICENTER": 252.7421, "MEAN_ANOMALY": 335.4128, "EPHEMERIS_TYPE": 0, "CLASSIFICATION_TYPE": "U", "NORAD_CAT_ID": 37185, "ELEMENT_SET_NO": 999, "REV_AT_EPOCH": 5573, "BSTAR": 0, "MEAN_MOTION_DOT": -3e-08, "MEAN_MOTION_DDOT": 0}, "tle": {"line1": "1 37185U 10053A   25358.44050679 -.00000003  00000+0  00000+0 0  9993", "line2": "2 37185   0.0670 268.4495 0002107 252.7421 335.4128  1.00277155 55734"}}, "geometry": {"type": "Point", "coordinates": [94.16681419357549, 0.014969572153874266]}}, {"type": "Feature", "properties": {"norad_id": 37238, "name": "INTELSAT 17 (IS-17)", "group": "intelsat", "lat": -0.007357510931591221, "lon": -84.64687053363681, "alt_km": 35775.02018760343, "timestamp": "2025-12-25T07:41:09.390580+00:00", "meta": {"OBJECT_NAME": "INTELSAT 17 (IS-17)", "OBJECT_ID": "2010-065B", "EPOCH": "2025-12-24T20:06:15.433632", "MEAN_MOTION": 1.00271392, "ECCENTRICITY": 0.00026599, "INCLINATION": 0.0109, "RA_OF_ASC_NODE": 111.598, "ARG_OF_PERICENTER": 171.6759, "MEAN_ANOMALY": 177.8901, "EPHEMERIS_TYPE": 0, "CLASSIFICATION_TYPE": "U", "NORAD_CAT_ID": 37238, "ELEMENT_SET_NO": 999, "REV_AT_EPOCH": 5150, "BSTAR": 0, "MEAN_MOTION_DOT": 2e-07, "MEAN_MOTION_DDOT": 0}, "tle": {"line1": "1 37238U 10065B   25358.83767863  .00000020  00000+0  00000+0 0  9996", "line2": "2 37238   0.0109 111.5980 0002659 171.6759 177.8901  1.00271392 51507"}}, "geometry": {"type": "Point", "coordinates": [-84.64687053363681, -0.007357510931591221]}}, {"type": "Feature", "properties": {"norad_id": 37392, "name": "INTELSAT 28 (IS-28)", "group": "intelsat", "lat": 1.3597062797953796, "lon": 177.61937309087867, "alt_km": 35787.061634402904, "timestamp": "2025-12-25T07:41:09.390592+00:00", "meta": {"OBJECT_NAME": "INTELSAT 28 (IS-28)", "OBJECT_ID": "2011-016A", "EPOCH": "2025-12-24T19:47:47.591232", "MEAN_MOTION": 1.00272077, "ECCENTRICITY": 0.00037281, "INCLINATION": 1.3539, "RA_OF_ASC_NODE": 84.9255, "ARG_OF_PERICENTER": 187.021, "MEAN_ANOMALY": 86.8903, "EPHEMERIS_TYPE": 0, "CLASSIFICATION_TYPE": "U", "NORAD_CAT_ID": 37392, "ELEMENT_SET_NO": 999, "REV_AT_EPOCH": 5153, "BSTAR": 0, "MEAN_MOTION_DOT": -2.04e-06, "MEAN_MOTION_DDOT": 0}, "tle": {"line1": "1 37392U 11016A   25358.82485638 -.00000204  00000+0  00000+0 0  9995", "line2": "2 37392   1.3539  84.9255 0003728 187.0210  86.8903  1.00272077 51533"}}, "geometry": {"type": "Point", "coordinates": [177.61937309087867, 1.3597062797953796]}}]}